{
  "type": "FeatureCollection",
  "features": [
    {
      "type": "Feature",
      "properties": {
        "norad_id": 33805,
        "name": "COSMOS 2251 DEB",
        "group": "cosmos-2251-debris",
        "lat": -35.34998413393267,
        "lon": 128.32661074231754,
        "alt_km": 708.3601342319271,
        "timestamp": "2025-12-20T11:30:28.768682+00:00",
        "meta_object_name": "COSMOS 2251 DEB",
        "meta_object_id": "1993-036AW",
        "meta_epoch": "2025-12-20T02:17:14.790912",
        "meta_mean_motion": 14.57870586,
        "meta_eccentricity": 0.0059992,
        "meta_inclination": 74.0311,
        "meta_ra_of_asc_node": 297.3377,
        "meta_arg_of_pericenter": 124.1773,
        "meta_mean_anomaly": 236.5099,
        "meta_ephemeris_type": 0,
        "meta_classification_type": "U",
        "meta_norad_cat_id": 33805,
        "meta_element_set_no": 999,
        "meta_rev_at_epoch": 89334,
        "meta_bstar": 0.00015754,
        "meta_mean_motion_dot": 7.09e-06,
        "meta_mean_motion_ddot": 0,
        "tle_line1": "1 33805U 93036AW  25354.09531008  .00000709  00000+0  15754-3 0  9995",
        "tle_line2": "2 33805  74.0311 297.3377 0059992 124.1773 236.5099 14.57870586893346"
      },
      "geometry": {
        "type": "Point",
        "coordinates": [
          128.32661074231754,
          -35.34998413393267
        ]
      }
    },
    {
      "type": "Feature",
      "properties": {
        "norad_id": 33811,
        "name": "COSMOS 2251 DEB",
        "group": "cosmos-2251-debris",
        "lat": -31.474823612002112,
        "lon": -83.62462575984257,
        "alt_km": 539.1821605186014,
        "timestamp": "2025-12-20T11:30:28.768697+00:00",
        "meta_object_name": "COSMOS 2251 DEB",
        "meta_object_id": "1993-036BC",
        "meta_epoch": "2025-12-20T03:57:35.078112",
        "meta_mean_motion": 15.054717,
        "meta_eccentricity": 0.0030759,
        "meta_inclination": 73.8376,
        "meta_ra_of_asc_node": 287.2544,
        "meta_arg_of_pericenter": 6.9351,
        "meta_mean_anomaly": 56.6249,
        "meta_ephemeris_type": 0,
        "meta_classification_type": "U",
        "meta_norad_cat_id": 33811,
        "meta_element_set_no": 999,
        "meta_rev_at_epoch": 90130,
        "meta_bstar": 0.00073583,
        "meta_mean_motion_dot": 0.0001066,
        "meta_mean_motion_ddot": 0,
        "tle_line1": "1 33811U 93036BC  25354.16498933  .00010660  00000+0  73583-3 0  9990",
        "tle_line2": "2 33811  73.8376 287.2544 0030759   6.9351  56.6249 15.05471700901307"
      },
      "geometry": {
        "type": "Point",
        "coordinates": [
          -83.62462575984257,
          -31.474823612002112
        ]
      }
    },
    {
      "type": "Feature",
      "properties": {
        "norad_id": 33815,
        "name": "COSMOS 2251 DEB",
        "group": "cosmos-2251-debris",
        "lat": 53.08082734137924,
        "lon": -177.17093543480837,
        "alt_km": 501.1589060176311,
        "timestamp": "2025-12-20T11:30:28.768707+00:00",
        "meta_object_name": "COSMOS 2251 DEB",
        "meta_object_id": "1993-036BG",
        "meta_epoch": "2025-12-19T21:41:49.609824",
        "meta_mean_motion": 15.19832147,
        "meta_eccentricity": 0.0001675,
        "meta_inclination": 73.9514,
        "meta_ra_of_asc_node": 161.5129,
        "meta_arg_of_pericenter": 305.1272,
        "meta_mean_anomaly": 203.9305,
        "meta_ephemeris_type": 0,
        "meta_classification_type": "U",
        "meta_norad_cat_id": 33815,
        "meta_element_set_no": 999,
        "meta_rev_at_epoch": 88479,
        "meta_bstar": 0.0042809,
        "meta_mean_motion_dot": 0.00092951,
        "meta_mean_motion_ddot": 0,
        "tle_line1": "1 33815U 93036BG  25353.90404641  .00092951  00000+0  42809-2 0  9997",
        "tle_line2": "2 33815  73.9514 161.5129 0001675 305.1272 203.9305 15.19832147884794"
      },
      "geometry": {
        "type": "Point",
        "coordinates": [
          -177.17093543480837,
          53.08082734137924
        ]
      }
    },
    {
      "type": "Feature",
      "properties": {
        "norad_id": 33816,
        "name": "COSMOS 2251 DEB",
        "group": "cosmos-2251-debris",
        "lat": 51.04194940327818,
        "lon": 113.21278793331129,
        "alt_km": 823.7987458287398,
        "timestamp": "2025-12-20T11:30:28.768718+00:00",
        "meta_object_name": "COSMOS 2251 DEB",
        "meta_object_id": "1993-036BH",
        "meta_epoch": "2025-12-19T16:08:15.886176",
        "meta_mean_motion": 13.81790801,
        "meta_eccentricity": 0.02643508,
        "meta_inclination": 73.8953,
        "meta_ra_of_asc_node": 93.6459,
        "meta_arg_of_pericenter": 105.2097,
        "meta_mean_anomaly": 257.842,
        "meta_ephemeris_type": 0,
        "meta_classification_type": "U",
        "meta_norad_cat_id": 33816,
        "meta_element_set_no": 999,
        "meta_rev_at_epoch": 84769,
        "meta_bstar": 0.00025443517,
        "meta_mean_motion_dot": 3.34e-06,
        "meta_mean_motion_ddot": 0,
        "tle_line1": "1 33816U 93036BH  25353.67240609  .00000334  00000+0  25444-3 0  9995",
        "tle_line2": "2 33816  73.8953  93.6459 0264350 105.2097 257.8420 13.81790801847698"
      },
      "geometry": {
        "type": "Point",
        "coordinates": [
          113.21278793331129,
          51.04194940327818
        ]
      }
    },
    {
      "type": "Feature",
      "properties": {
        "norad_id": 33818,
        "name": "COSMOS 2251 DEB",
        "group": "cosmos-2251-debris",
        "lat": 47.58321981283093,
        "lon": -47.97136670747104,
        "alt_km": 504.8523534574042,
        "timestamp": "2025-12-20T11:30:28.768728+00:00",
        "meta_object_name": "COSMOS 2251 DEB",
        "meta_object_id": "1993-036BK",
        "meta_epoch": "2025-12-19T21:19:19.667712",
        "meta_mean_motion": 15.13036734,
        "meta_eccentricity": 0.0025387,
        "meta_inclination": 74.0769,
        "meta_ra_of_asc_node": 151.4589,
        "meta_arg_of_pericenter": 137.1567,
        "meta_mean_anomaly": 14.4457,
        "meta_ephemeris_type": 0,
        "meta_classification_type": "U",
        "meta_norad_cat_id": 33818,
        "meta_element_set_no": 999,
        "meta_rev_at_epoch": 89970,
        "meta_bstar": 0.0016857,
        "meta_mean_motion_dot": 0.00030116,
        "meta_mean_motion_ddot": 0,
        "tle_line1": "1 33818U 93036BK  25353.88842208  .00030116  00000+0  16857-2 0  9991",
        "tle_line2": "2 33818  74.0769 151.4589 0025387 137.1567  14.4457 15.13036734899707"
      },
      "geometry": {
        "type": "Point",
        "coordinates": [
          -47.97136670747104,
          47.58321981283093
        ]
      }
    },
    {
      "type": "Feature",
      "properties": {
        "norad_id": 33819,
        "name": "COSMOS 2251 DEB",
        "group": "cosmos-2251-debris",
        "lat": 7.585900093554682,
        "lon": 13.68140758607108,
        "alt_km": 814.562310383707,
        "timestamp": "2025-12-20T11:30:28.768738+00:00",
        "meta_object_name": "COSMOS 2251 DEB",
        "meta_object_id": "1993-036BL",
        "meta_epoch": "2025-12-20T01:13:29.138016",
        "meta_mean_motion": 14.32246054,
        "meta_eccentricity": 0.0089359,
        "meta_inclination": 74.1776,
        "meta_ra_of_asc_node": 196.6206,
        "meta_arg_of_pericenter": 55.742,
        "meta_mean_anomaly": 67.0213,
        "meta_ephemeris_type": 0,
        "meta_classification_type": "U",
        "meta_norad_cat_id": 33819,
        "meta_element_set_no": 999,
        "meta_rev_at_epoch": 87600,
        "meta_bstar": 0.00042117,
        "meta_mean_motion_dot": 1.163e-05,
        "meta_mean_motion_ddot": 0,
        "tle_line1": "1 33819U 93036BL  25354.05103169  .00001163  00000+0  42117-3 0  9997",
        "tle_line2": "2 33819  74.1776 196.6206 0089359  55.7420  67.0213 14.32246054876006"
      },
      "geometry": {
        "type": "Point",
        "coordinates": [
          13.68140758607108,
          7.585900093554682
        ]
      }
    },
    {
      "type": "Feature",
      "properties": {
        "norad_id": 33821,
        "name": "COSMOS 2251 DEB",
        "group": "cosmos-2251-debris",
        "lat": -66.96730140545414,
        "lon": 84.12280029428474,
        "alt_km": 517.0671398185596,
        "timestamp": "2025-12-20T11:30:28.768748+00:00",
        "meta_object_name": "COSMOS 2251 DEB",
        "meta_object_id": "1993-036BN",
        "meta_epoch": "2025-12-20T02:23:20.745888",
        "meta_mean_motion": 15.25744458,
        "meta_eccentricity": 0.0050233,
        "meta_inclination": 74.0299,
        "meta_ra_of_asc_node": 127.272,
        "meta_arg_of_pericenter": 158.5982,
        "meta_mean_anomaly": 201.7335,
        "meta_ephemeris_type": 0,
        "meta_classification_type": "U",
        "meta_norad_cat_id": 33821,
        "meta_element_set_no": 999,
        "meta_rev_at_epoch": 75113,
        "meta_bstar": 0.00085563,
        "meta_mean_motion_dot": 0.0002267,
        "meta_mean_motion_ddot": 0,
        "tle_line1": "1 33821U 93036BN  25354.09954567  .00022670  00000+0  85563-3 0  9998",
        "tle_line2": "2 33821  74.0299 127.2720 0050233 158.5982 201.7335 15.25744458751135"
      },
      "geometry": {
        "type": "Point",
        "coordinates": [
          84.12280029428474,
          -66.96730140545414
        ]
      }
    }
  ]
}